{
  "type": "FeatureCollection",
  "features": [
    {
      "type": "Feature",
      "properties": {
        "norad_id": 66654,
        "name": "JACK E",
        "group": "last-30-days",
        "lat": -9.473918010029497,
        "lon": -71.38190231730285,
        "alt_km": 602.5253723039805,
        "timestamp": "2025-12-26T08:37:53.289994+00:00",
        "meta_object_name": "JACK E",
        "meta_object_id": "2025-274E",
        "meta_epoch": "2025-12-25T18:11:22.632576",
        "meta_mean_motion": 14.9215245,
        "meta_eccentricity": 0.00123974,
        "meta_inclination": 97.7406,
        "meta_ra_of_asc_node": 286.7263,
        "meta_arg_of_pericenter": 206.9936,
        "meta_mean_anomaly": 153.064,
        "meta_ephemeris_type": 0,
        "meta_classification_type": "U",
        "meta_norad_cat_id": 66654,
        "meta_element_set_no": 999,
        "meta_rev_at_epoch": 434,
        "meta_bstar": 0.00032962854,
        "meta_mean_motion_dot": 3.303e-05,
        "meta_mean_motion_ddot": 0,
        "tle_line1": "1 66654U 25274E   25359.75790084  .00003303  00000+0  32963-3 0  9995",
        "tle_line2": "2 66654  97.7406 286.7263 0012397 206.9936 153.0640 14.92152450  4346"
      },
      "geometry": {
        "type": "Point",
        "coordinates": [
          -71.38190231730285,
          -9.473918010029497
        ]
      }
    },
    {
      "type": "Feature",
      "properties": {
        "norad_id": 66655,
        "name": "2025-274F",
        "group": "last-30-days",
        "lat": -51.77903424343696,
        "lon": -62.77470568214217,
        "alt_km": 598.4036210721051,
        "timestamp": "2025-12-26T08:37:53.290004+00:00",
        "meta_object_name": "2025-274F",
        "meta_object_id": "2025-274F",
        "meta_epoch": "2025-12-25T18:22:19.797024",
        "meta_mean_motion": 14.91199318,
        "meta_eccentricity": 0.00044552,
        "meta_inclination": 97.7336,
        "meta_ra_of_asc_node": 286.7062,
        "meta_arg_of_pericenter": 336.6899,
        "meta_mean_anomaly": 23.4117,
        "meta_ephemeris_type": 0,
        "meta_classification_type": "U",
        "meta_norad_cat_id": 66655,
        "meta_element_set_no": 999,
        "meta_rev_at_epoch": 434,
        "meta_bstar": 1.0624922e-05,
        "meta_mean_motion_dot": 5.1e-07,
        "meta_mean_motion_ddot": 0,
        "tle_line1": "1 66655U 25274F   25359.76550691  .00000051  00000+0  10625-4 0  9994",
        "tle_line2": "2 66655  97.7336 286.7062 0004455 336.6899  23.4117 14.91199318  4343"
      },
      "geometry": {
        "type": "Point",
        "coordinates": [
          -62.77470568214217,
          -51.77903424343696
        ]
      }
    },
    {
      "type": "Feature",
      "properties": {
        "norad_id": 66656,
        "name": "2025-274G",
        "group": "last-30-days",
        "lat": 10.447112119120343,
        "lon": -74.11193051042264,
        "alt_km": 600.8545571719669,
        "timestamp": "2025-12-26T08:37:53.290018+00:00",
        "meta_object_name": "2025-274G",
        "meta_object_id": "2025-274G",
        "meta_epoch": "2025-12-25T16:29:32.162784",
        "meta_mean_motion": 14.92349038,
        "meta_eccentricity": 0.00129558,
        "meta_inclination": 97.7403,
        "meta_ra_of_asc_node": 286.6643,
        "meta_arg_of_pericenter": 209.015,
        "meta_mean_anomaly": 151.035,
        "meta_ephemeris_type": 0,
        "meta_classification_type": "U",
        "meta_norad_cat_id": 66656,
        "meta_element_set_no": 999,
        "meta_rev_at_epoch": 433,
        "meta_bstar": 0.00035890142,
        "meta_mean_motion_dot": 3.62e-05,
        "meta_mean_motion_ddot": 0,
        "tle_line1": "1 66656U 25274G   25359.68717781  .00003620  00000+0  35890-3 0  9996",
        "tle_line2": "2 66656  97.7403 286.6643 0012955 209.0150 151.0350 14.92349038  4333"
      },
      "geometry": {
        "type": "Point",
        "coordinates": [
          -74.11193051042264,
          10.447112119120343
        ]
      }
    },
    {
      "type": "Feature",
      "properties": {
        "norad_id": 66657,
        "name": "SPIRONE",
        "group": "last-30-days",
        "lat": 29.346316991893037,
        "lon": -77.05313014040878,
        "alt_km": 596.0556933903463,
        "timestamp": "2025-12-26T08:37:53.290029+00:00",
        "meta_object_name": "SPIRONE",
        "meta_object_id": "2025-274H",
        "meta_epoch": "2025-12-25T18:01:04.034496",
        "meta_mean_motion": 14.92527899,
        "meta_eccentricity": 0.001096,
        "meta_inclination": 97.74,
        "meta_ra_of_asc_node": 286.734,
        "meta_arg_of_pericenter": 226.2948,
        "meta_mean_anomaly": 133.7364,
        "meta_ephemeris_type": 0,
        "meta_classification_type": "U",
        "meta_norad_cat_id": 66657,
        "meta_element_set_no": 999,
        "meta_rev_at_epoch": 434,
        "meta_bstar": 0.00036151357,
        "meta_mean_motion_dot": 3.661e-05,
        "meta_mean_motion_ddot": 0,
        "tle_line1": "1 66657U 25274H   25359.75074114  .00003661  00000+0  36151-3 0  9997",
        "tle_line2": "2 66657  97.7400 286.7340 0010960 226.2948 133.7364 14.92527899  4342"
      },
      "geometry": {
        "type": "Point",
        "coordinates": [
          -77.05313014040878,
          29.346316991893037
        ]
      }
    },
    {
      "type": "Feature",
      "properties": {
        "norad_id": 66658,
        "name": "2025-274J",
        "group": "last-30-days",
        "lat": 47.53363304149775,
        "lon": -81.20535798722383,
        "alt_km": 593.268644038516,
        "timestamp": "2025-12-26T08:37:53.290041+00:00",
        "meta_object_name": "2025-274J",
        "meta_object_id": "2025-274J",
        "meta_epoch": "2025-12-25T17:56:13.034976",
        "meta_mean_motion": 14.927091,
        "meta_eccentricity": 0.00114637,
        "meta_inclination": 97.74,
        "meta_ra_of_asc_node": 286.7386,
        "meta_arg_of_pericenter": 229.5134,
        "meta_mean_anomaly": 130.5087,
        "meta_ephemeris_type": 0,
        "meta_classification_type": "U",
        "meta_norad_cat_id": 66658,
        "meta_element_set_no": 999,
        "meta_rev_at_epoch": 434,
        "meta_bstar": 0.00051472804,
        "meta_mean_motion_dot": 5.263e-05,
        "meta_mean_motion_ddot": 0,
        "tle_line1": "1 66658U 25274J   25359.74737309  .00005263  00000+0  51473-3 0  9993",
        "tle_line2": "2 66658  97.7400 286.7386 0011463 229.5134 130.5087 14.92709100  4349"
      },
      "geometry": {
        "type": "Point",
        "coordinates": [
          -81.20535798722383,
          47.53363304149775
        ]
      }
    },
    {
      "type": "Feature",
      "properties": {
        "norad_id": 66659,
        "name": "JACK K",
        "group": "last-30-days",
        "lat": 66.48805974643298,
        "lon": -90.86837248645004,
        "alt_km": 590.5614177328971,
        "timestamp": "2025-12-26T08:37:53.290051+00:00",
        "meta_object_name": "JACK K",
        "meta_object_id": "2025-274K",
        "meta_epoch": "2025-12-25T17:51:03.116448",
        "meta_mean_motion": 14.92878978,
        "meta_eccentricity": 0.00122138,
        "meta_inclination": 97.7403,
        "meta_ra_of_asc_node": 286.7439,
        "meta_arg_of_pericenter": 231.5343,
        "meta_mean_anomaly": 128.4781,
        "meta_ephemeris_type": 0,
        "meta_classification_type": "U",
        "meta_norad_cat_id": 66659,
        "meta_element_set_no": 999,
        "meta_rev_at_epoch": 434,
        "meta_bstar": 0.00032013564,
        "meta_mean_motion_dot": 3.265e-05,
        "meta_mean_motion_ddot": 0,
        "tle_line1": "1 66659U 25274K   25359.74378607  .00003265  00000+0  32014-3 0  9996",
        "tle_line2": "2 66659  97.7403 286.7439 0012213 231.5343 128.4781 14.92878978  4348"
      },
      "geometry": {
        "type": "Point",
        "coordinates": [
          -90.86837248645004,
          66.48805974643298
        ]
      }
    },
    {
      "type": "Feature",
      "properties": {
        "norad_id": 66660,
        "name": "K-HERO",
        "group": "last-30-days",
        "lat": 80.0643250694654,
        "lon": -123.58163895656583,
        "alt_km": 588.5571927299243,
        "timestamp": "2025-12-26T08:37:53.290061+00:00",
        "meta_object_name": "K-HERO",
        "meta_object_id": "2025-274L",
        "meta_epoch": "2025-12-25T19:23:20.955552",
        "meta_mean_motion": 14.93030361,
        "meta_eccentricity": 0.00128508,
        "meta_inclination": 97.7404,
        "meta_ra_of_asc_node": 286.8151,
        "meta_arg_of_pericenter": 232.0966,
        "meta_mean_anomaly": 127.9092,
        "meta_ephemeris_type": 0,
        "meta_classification_type": "U",
        "meta_norad_cat_id": 66660,
        "meta_element_set_no": 999,
        "meta_rev_at_epoch": 435,
        "meta_bstar": 0.00030941954,
        "meta_mean_motion_dot": 3.167e-05,
        "meta_mean_motion_ddot": 0,
        "tle_line1": "1 66660U 25274L   25359.80788143  .00003167  00000+0  30942-3 0  9994",
        "tle_line2": "2 66660  97.7404 286.8151 0012850 232.0966 127.9092 14.93030361  4354"
      },
      "geometry": {
        "type": "Point",
        "coordinates": [
          -123.58163895656583,
          80.0643250694654
        ]
      }
    }
  ]
}